{"type": "FeatureCollection", "features": [ {"type": "Feature", "properties": {"norad_id": 44622, "name": "GAOFEN-10R", "group": "resource", "lat": 55.38683019669517, "lon": -78.5047555893967, "alt_km": 609.80477467113, "timestamp": "2025-12-11T18:59:45.724063+00:00", "meta": {"OBJECT_NAME": "GAOFEN-10R", "OBJECT_ID": "2019-066A", "EPOCH": "2025-12-11T07:24:24.894144", "MEAN_MOTION": 14.82792183, "ECCENTRICITY": 0.00079405, "INCLINATION": 98.0276, "RA_OF_ASC_NODE": 292.8093, "ARG_OF_PERICENTER": 46.0136, "MEAN_ANOMALY": 314.1731, "EPHEMERIS_TYPE": 0, "CLASSIFICATION_TYPE": "U", "NORAD_CAT_ID": 44622, "ELEMENT_SET_NO": 999, "REV_AT_EPOCH": 33453, "BSTAR": 0.000658108, "MEAN_MOTION_DOT": 5.272e-05, "MEAN_MOTION_DDOT": 0}, "tle": {"line1": "1 44622U 19066A   25345.30862146  .00005272  00000+0  65811-3 0  9998", "line2": "2 44622  98.0276 292.8093 0007940  46.0136 314.1731 14.82792183334538"}}, "geometry": {"type": "Point", "coordinates": [-78.5047555893967, 55.38683019669517]}}, {"type": "Feature", "properties": {"norad_id": 44804, "name": "CARTOSAT-3", "group": "resource", "lat": 80.5414956775589, "lon": -82.7697026995473, "alt_km": 490.8047867522246, "timestamp": "2025-12-11T18:59:45.724074+00:00", "meta": {"OBJECT_NAME": "CARTOSAT-3", "OBJECT_ID": "2019-081A", "EPOCH": "2025-12-11T05:55:54.095232", "MEAN_MOTION": 15.19354787, "ECCENTRICITY": 0.00139486, "INCLINATION": 97.4581, "RA_OF_ASC_NODE": 44.8496, "ARG_OF_PERICENTER": 91.8478, "MEAN_ANOMALY": 268.4355, "EPHEMERIS_TYPE": 0, "CLASSIFICATION_TYPE": "U", "NORAD_CAT_ID": 44804, "ELEMENT_SET_NO": 999, "REV_AT_EPOCH": 33493, "BSTAR": 0.00042959846, "MEAN_MOTION_DOT": 9.04e-05, "MEAN_MOTION_DDOT": 0}, "tle": {"line1": "1 44804U 19081A   25345.24715388  .00009040  00000+0  42960-3 0  9992", "line2": "2 44804  97.4581  44.8496 0013948  91.8478 268.4355 15.19354787334938"}}, "geometry": {"type": "Point", "coordinates": [-82.7697026995473, 80.5414956775589]}}, {"type": "Feature", "properties": {"norad_id": 44819, "name": "GAOFEN-12 01", "group": "resource", "lat": -29.243639350092305, "lon": -3.4938218065191218, "alt_km": 633.1771080999724, "timestamp": "2025-12-11T18:59:45.724084+00:00", "meta": {"OBJECT_NAME": "GAOFEN-12 01", "OBJECT_ID": "2019-082A", "EPOCH": "2025-12-11T06:09:14.533344", "MEAN_MOTION": 14.80654453, "ECCENTRICITY": 0.00012474, "INCLINATION": 97.8127, "RA_OF_ASC_NODE": 351.5763, "ARG_OF_PERICENTER": 243.0169, "MEAN_ANOMALY": 117.0916, "EPHEMERIS_TYPE": 0, "CLASSIFICATION_TYPE": "U", "NORAD_CAT_ID": 44819, "ELEMENT_SET_NO": 999, "REV_AT_EPOCH": 32628, "BSTAR": 0.00010932629, "MEAN_MOTION_DOT": 7.89e-06, "MEAN_MOTION_DDOT": 0}, "tle": {"line1": "1 44819U 19082A   25345.25641821  .00000789  00000+0  10933-3 0  9996", "line2": "2 44819  97.8127 351.5763 0001247 243.0169 117.0916 14.80654453326287"}}, "geometry": {"type": "Point", "coordinates": [-3.4938218065191218, -29.243639350092305]}}, {"type": "Feature", "properties": {"norad_id": 44873, "name": "CSG-1", "group": "resource", "lat": 74.24741665560455, "lon": 137.71962755665444, "alt_km": 614.4212015500079, "timestamp": "2025-12-11T18:59:45.724094+00:00", "meta": {"OBJECT_NAME": "CSG-1", "OBJECT_ID": "2019-092A", "EPOCH": "2025-12-11T05:41:27.849696", "MEAN_MOTION": 14.82160831, "ECCENTRICITY": 0.00014421, "INCLINATION": 97.881, "RA_OF_ASC_NODE": 166.584, "ARG_OF_PERICENTER": 85.2123, "MEAN_ANOMALY": 274.9255, "EPHEMERIS_TYPE": 0, "CLASSIFICATION_TYPE": "U", "NORAD_CAT_ID": 44873, "ELEMENT_SET_NO": 999, "REV_AT_EPOCH": 32363, "BSTAR": 0.00013023655, "MEAN_MOTION_DOT": 9.85e-06, "MEAN_MOTION_DDOT": 0}, "tle": {"line1": "1 44873U 19092A   25345.23712789  .00000985  00000+0  13024-3 0  9999", "line2": "2 44873  97.8810 166.5840 0001442  85.2123 274.9255 14.82160831323638"}}, "geometry": {"type": "Point", "coordinates": [137.71962755665444, 74.24741665560455]}}, {"type": "Feature", "properties": {"norad_id": 46277, "name": "NEMO-HD", "group": "resource", "lat": 36.564228307384155, "lon": 39.50488360472115, "alt_km": 441.38224324400653, "timestamp": "2025-12-11T18:59:45.724105+00:00", "meta": {"OBJECT_NAME": "NEMO-HD", "OBJECT_ID": "2020-061F", "EPOCH": "2025-12-11T06:21:47.645856", "MEAN_MOTION": 15.40295602, "ECCENTRICITY": 0.00019782, "INCLINATION": 97.2211, "RA_OF_ASC_NODE": 44.3814, "ARG_OF_PERICENTER": 58.1284, "MEAN_ANOMALY": 302.0155, "EPHEMERIS_TYPE": 0, "CLASSIFICATION_TYPE": "U", "NORAD_CAT_ID": 46277, "ELEMENT_SET_NO": 999, "REV_AT_EPOCH": 29301, "BSTAR": 0.00078877681, "MEAN_MOTION_DOT": 0.00031787, "MEAN_MOTION_DDOT": 0}, "tle": {"line1": "1 46277U 20061F   25345.26513479  .00031787  00000+0  78878-3 0  9997", "line2": "2 46277  97.2211  44.3814 0001978  58.1284 302.0155 15.40295602293012"}}, "geometry": {"type": "Point", "coordinates": [39.50488360472115, 36.564228307384155]}}, {"type": "Feature", "properties": {"norad_id": 46984, "name": "SENTINEL-6A", "group": "resource", "lat": 41.84829336955338, "lon": -172.25310500148868, "alt_km": 1337.831591837943, "timestamp": "2025-12-11T18:59:45.724115+00:00", "meta": {"OBJECT_NAME": "SENTINEL-6A", "OBJECT_ID": "2020-086A", "EPOCH": "2025-12-10T18:23:32.214912", "MEAN_MOTION": 12.80930554, "ECCENTRICITY": 0.0007731, "INCLINATION": 66.039, "RA_OF_ASC_NODE": 166.4071, "ARG_OF_PERICENTER": 269.1652, "MEAN_ANOMALY": 90.8477, "EPHEMERIS_TYPE": 0, "CLASSIFICATION_TYPE": "U", "NORAD_CAT_ID": 46984, "ELEMENT_SET_NO": 999, "REV_AT_EPOCH": 23619, "BSTAR": 9.1963369e-05, "MEAN_MOTION_DOT": -4e-07, "MEAN_MOTION_DDOT": 0}, "tle": {"line1": "1 46984U 20086A   25344.76634508 -.00000040  00000+0  91963-4 0  9990", "line2": "2 46984  66.0390 166.4071 0007731 269.1652  90.8477 12.80930554236194"}}, "geometry": {"type": "Point", "coordinates": [-172.25310500148868, 41.84829336955338]}}, {"type": "Feature", "properties": {"norad_id": 48079, "name": "GAOFEN-12 02", "group": "resource", "lat": -18.181021724027897, "lon": -17.5552042614953, "alt_km": 633.4869011254041, "timestamp": "2025-12-11T18:59:45.724126+00:00", "meta": {"OBJECT_NAME": "GAOFEN-12 02", "OBJECT_ID": "2021-026A", "EPOCH": "2025-12-11T06:06:13.931424", "MEAN_MOTION": 14.80675607, "ECCENTRICITY": 0.00035107, "INCLINATION": 97.9852, "RA_OF_ASC_NODE": 339.2679, "ARG_OF_PERICENTER": 104.0601, "MEAN_ANOMALY": 256.1001, "EPHEMERIS_TYPE": 0, "CLASSIFICATION_TYPE": "U", "NORAD_CAT_ID": 48079, "ELEMENT_SET_NO": 999, "REV_AT_EPOCH": 25395, "BSTAR": 0.00018101778, "MEAN_MOTION_DOT": 1.339e-05, "MEAN_MOTION_DDOT": 0}, "tle": {"line1": "1 48079U 21026A   25345.25432791  .00001339  00000+0  18102-3 0  9991", "line2": "2 48079  97.9852 339.2679 0003510 104.0601 256.1001 14.80675607253953"}}, "geometry": {"type": "Point", "coordinates": [-17.5552042614953, -18.181021724027897]}}, {"type": "Feature", "properties": {"norad_id": 48268, "name": "PLEIADES NEO 3", "group": "resource", "lat": 44.742807695498904, "lon": 50.34185431589717, "alt_km": 619.5217353579092, "timestamp": "2025-12-11T18:59:45.724136+00:00", "meta": {"OBJECT_NAME": "PLEIADES NEO 3", "OBJECT_ID": "2021-034A", "EPOCH": "2025-12-11T07:26:49.061184", "MEAN_MOTION": 14.81680528, "ECCENTRICITY": 0.00014283, "INCLINATION": 97.8943, "RA_OF_ASC_NODE": 57.7716, "ARG_OF_PERICENTER": 92.905, "MEAN_ANOMALY": 267.2327, "EPHEMERIS_TYPE": 0, "CLASSIFICATION_TYPE": "U", "NORAD_CAT_ID": 48268, "ELEMENT_SET_NO": 999, "REV_AT_EPOCH": 24983, "BSTAR": 0.00040412679, "MEAN_MOTION_DOT": 3.13e-05, "MEAN_MOTION_DDOT": 0}, "tle": {"line1": "1 48268U 21034A   25345.31029006  .00003130  00000+0  40413-3 0  9999", "line2": "2 48268  97.8943  57.7716 0001428  92.9050 267.2327 14.81680528249831"}}, "geometry": {"type": "Point", "coordinates": [50.34185431589717, 44.742807695498904]}}, {"type": "Feature", "properties": {"norad_id": 49070, "name": "PLEIADES NEO 4", "group": "resource", "lat": -44.96829472040473, "lon": -129.72518049784682, "alt_km": 631.3100099850653, "timestamp": "2025-12-11T18:59:45.724147+00:00", "meta": {"OBJECT_NAME": "PLEIADES NEO 4", "OBJECT_ID": "2021-073E", "EPOCH": "2025-12-11T11:29:55.242240", "MEAN_MOTION": 14.81675423, "ECCENTRICITY": 0.0001258, "INCLINATION": 97.8949, "RA_OF_ASC_NODE": 57.9344, "ARG_OF_PERICENTER": 99.8795, "MEAN_ANOMALY": 260.256, "EPHEMERIS_TYPE": 0, "CLASSIFICATION_TYPE": "U", "NORAD_CAT_ID": 49070, "ELEMENT_SET_NO": 999, "REV_AT_EPOCH": 23357, "BSTAR": 2.2947e-05, "MEAN_MOTION_DOT": 1.29e-06, "MEAN_MOTION_DDOT": 0}, "tle": {"line1": "1 49070U 21073E   25345.47911160  .00000129  00000+0  22947-4 0  9990", "line2": "2 49070  97.8949  57.9344 0001258  99.8795 260.2560 14.81675423233575"}}, "geometry": {"type": "Point", "coordinates": [-129.72518049784682, -44.96829472040473]}}, {"type": "Feature", "properties": {"norad_id": 49260, "name": "LANDSAT 9", "group": "resource", "lat": -33.75553629893342, "lon": 59.453216301717504, "alt_km": 709.1152009843618, "timestamp": "2025-12-11T18:59:45.724157+00:00", "meta": {"OBJECT_NAME": "LANDSAT 9", "OBJECT_ID": "2021-088A", "EPOCH": "2025-12-10T21:43:40.110240", "MEAN_MOTION": 14.57127299, "ECCENTRICITY": 0.0001124, "INCLINATION": 98.2097, "RA_OF_ASC_NODE": 53.0431, "ARG_OF_PERICENTER": 95.249, "MEAN_ANOMALY": 264.8836, "EPHEMERIS_TYPE": 0, "CLASSIFICATION_TYPE": "U", "NORAD_CAT_ID": 49260, "ELEMENT_SET_NO": 999, "REV_AT_EPOCH": 22358, "BSTAR": 0.00016389, "MEAN_MOTION_DOT": 6.93e-06, "MEAN_MOTION_DDOT": 0}, "tle": {"line1": "1 49260U 21088A   25344.90532535  .00000693  00000+0  16389-3 0  9997", "line2": "2 49260  98.2097  53.0431 0001124  95.2490 264.8836 14.57127299223585"}}, "geometry": {"type": "Point", "coordinates": [59.453216301717504, -33.75553629893342]}}]}